{"type": "FeatureCollection", "features": [ {"type": "Feature", "properties": {"norad_id": 67048, "name": "STARLINK-35905", "group": "last-30-days", "lat": 2.69331763910302, "lon": 144.05223054079244, "alt_km": 296.60515192701496, "timestamp": "2025-12-19T10:49:59.925819+00:00", "meta": {"OBJECT_NAME": "STARLINK-35905", "OBJECT_ID": "2025-294U", "EPOCH": "2025-12-18T22:00:00.999936", "MEAN_MOTION": 15.93331693, "ECCENTRICITY": 0.00016131, "INCLINATION": 43.0004, "RA_OF_ASC_NODE": 144.4883, "ARG_OF_PERICENTER": 265.7277, "MEAN_ANOMALY": 268.8115, "EPHEMERIS_TYPE": 0, "CLASSIFICATION_TYPE": "U", "NORAD_CAT_ID": 67048, "ELEMENT_SET_NO": 999, "REV_AT_EPOCH": 130, "BSTAR": -0.0038447081, "MEAN_MOTION_DOT": -0.01414671, "MEAN_MOTION_DDOT": 0.00057735119}, "tle": {"line1": "1 67048U 25294U   25352.91667824 -.01414671  57735-3 -38447-2 0  9991", "line2": "2 67048  43.0004 144.4883 0001613 265.7277 268.8115 15.93331693  1305"}}, "geometry": {"type": "Point", "coordinates": [144.05223054079244, 2.69331763910302]}}, {"type": "Feature", "properties": {"norad_id": 67049, "name": "STARLINK-35877", "group": "last-30-days", "lat": 4.179910646146026, "lon": 145.65151585525604, "alt_km": 296.27644424702794, "timestamp": "2025-12-19T10:49:59.925833+00:00", "meta": {"OBJECT_NAME": "STARLINK-35877", "OBJECT_ID": "2025-294V", "EPOCH": "2025-12-18T22:00:00.999936", "MEAN_MOTION": 15.93422919, "ECCENTRICITY": 0.00016783, "INCLINATION": 43.0006, "RA_OF_ASC_NODE": 144.4834, "ARG_OF_PERICENTER": 266.1711, "MEAN_ANOMALY": 270.4065, "EPHEMERIS_TYPE": 0, "CLASSIFICATION_TYPE": "U", "NORAD_CAT_ID": 67049, "ELEMENT_SET_NO": 999, "REV_AT_EPOCH": 130, "BSTAR": -0.0039104779, "MEAN_MOTION_DOT": -0.01445475, "MEAN_MOTION_DDOT": 0.00060115363}, "tle": {"line1": "1 67049U 25294V   25352.91667824 -.01445475  60115-3 -39105-2 0  9996", "line2": "2 67049  43.0006 144.4834 0001678 266.1711 270.4065 15.93422919  1308"}}, "geometry": {"type": "Point", "coordinates": [145.65151585525604, 4.179910646146026]}}, {"type": "Feature", "properties": {"norad_id": 67050, "name": "STARLINK-36078", "group": "last-30-days", "lat": 5.679645217947971, "lon": 147.27497925049428, "alt_km": 295.9651184445547, "timestamp": "2025-12-19T10:49:59.925843+00:00", "meta": {"OBJECT_NAME": "STARLINK-36078", "OBJECT_ID": "2025-294W", "EPOCH": "2025-12-18T22:00:00.999936", "MEAN_MOTION": 15.93510852, "ECCENTRICITY": 0.00015437, "INCLINATION": 43.0002, "RA_OF_ASC_NODE": 144.4786, "ARG_OF_PERICENTER": 265.4868, "MEAN_ANOMALY": 273.1623, "EPHEMERIS_TYPE": 0, "CLASSIFICATION_TYPE": "U", "NORAD_CAT_ID": 67050, "ELEMENT_SET_NO": 999, "REV_AT_EPOCH": 130, "BSTAR": -0.0039770905, "MEAN_MOTION_DOT": -0.01476548, "MEAN_MOTION_DDOT": 0.00062561964}, "tle": {"line1": "1 67050U 25294W   25352.91667824 -.01476548  62562-3 -39771-2 0  9990", "line2": "2 67050  43.0002 144.4786 0001543 265.4868 273.1623 15.93510852  1302"}}, "geometry": {"type": "Point", "coordinates": [147.27497925049428, 5.679645217947971]}}, {"type": "Feature", "properties": {"norad_id": 67051, "name": "STARLINK-35706", "group": "last-30-days", "lat": 7.175588043616278, "lon": 148.90766238662667, "alt_km": 295.80662962784663, "timestamp": "2025-12-19T10:49:59.925853+00:00", "meta": {"OBJECT_NAME": "STARLINK-35706", "OBJECT_ID": "2025-294X", "EPOCH": "2025-12-18T22:00:00.999936", "MEAN_MOTION": 15.9361368, "ECCENTRICITY": 0.00018685, "INCLINATION": 43.0003, "RA_OF_ASC_NODE": 144.4737, "ARG_OF_PERICENTER": 263.6064, "MEAN_ANOMALY": 277.1174, "EPHEMERIS_TYPE": 0, "CLASSIFICATION_TYPE": "U", "NORAD_CAT_ID": 67051, "ELEMENT_SET_NO": 999, "REV_AT_EPOCH": 130, "BSTAR": -0.0041385279, "MEAN_MOTION_DOT": -0.01544114, "MEAN_MOTION_DDOT": 0.00067990078}, "tle": {"line1": "1 67051U 25294X   25352.91667824 -.01544114  67990-3 -41385-2 0  9990", "line2": "2 67051  43.0003 144.4737 0001868 263.6064 277.1174 15.93613680  1306"}}, "geometry": {"type": "Point", "coordinates": [148.90766238662667, 7.175588043616278]}}, {"type": "Feature", "properties": {"norad_id": 67052, "name": "STARLINK-35720", "group": "last-30-days", "lat": 8.330478665455013, "lon": 150.17873479668455, "alt_km": 295.34924607808625, "timestamp": "2025-12-19T10:49:59.925863+00:00", "meta": {"OBJECT_NAME": "STARLINK-35720", "OBJECT_ID": "2025-294Y", "EPOCH": "2025-12-18T22:00:00.999936", "MEAN_MOTION": 15.93687075, "ECCENTRICITY": 0.00015225, "INCLINATION": 43.0004, "RA_OF_ASC_NODE": 144.469, "ARG_OF_PERICENTER": 267.7612, "MEAN_ANOMALY": 274.551, "EPHEMERIS_TYPE": 0, "CLASSIFICATION_TYPE": "U", "NORAD_CAT_ID": 67052, "ELEMENT_SET_NO": 999, "REV_AT_EPOCH": 130, "BSTAR": -0.0041626395, "MEAN_MOTION_DOT": -0.01558891, "MEAN_MOTION_DDOT": 0.00069241569}, "tle": {"line1": "1 67052U 25294Y   25352.91667824 -.01558891  69242-3 -41626-2 0  9998", "line2": "2 67052  43.0004 144.4690 0001522 267.7612 274.5510 15.93687075  1301"}}, "geometry": {"type": "Point", "coordinates": [150.17873479668455, 8.330478665455013]}}, {"type": "Feature", "properties": {"norad_id": 67053, "name": "STARLINK-35739", "group": "last-30-days", "lat": 9.684815656340453, "lon": 151.68541627521262, "alt_km": 295.1460708388104, "timestamp": "2025-12-19T10:49:59.925873+00:00", "meta": {"OBJECT_NAME": "STARLINK-35739", "OBJECT_ID": "2025-294Z", "EPOCH": "2025-12-18T22:00:00.999936", "MEAN_MOTION": 15.93772812, "ECCENTRICITY": 0.0001486, "INCLINATION": 43.0004, "RA_OF_ASC_NODE": 144.4639, "ARG_OF_PERICENTER": 264.3589, "MEAN_ANOMALY": 279.8422, "EPHEMERIS_TYPE": 0, "CLASSIFICATION_TYPE": "U", "NORAD_CAT_ID": 67053, "ELEMENT_SET_NO": 999, "REV_AT_EPOCH": 130, "BSTAR": -0.0042481768, "MEAN_MOTION_DOT": -0.0159768, "MEAN_MOTION_DDOT": 0.00072506631}, "tle": {"line1": "1 67053U 25294Z   25352.91667824 -.01597680  72507-3 -42482-2 0  9997", "line2": "2 67053  43.0004 144.4639 0001486 264.3589 279.8422 15.93772812  1304"}}, "geometry": {"type": "Point", "coordinates": [151.68541627521262, 9.684815656340453]}}, {"type": "Feature", "properties": {"norad_id": 67054, "name": "STARLINK-35754", "group": "last-30-days", "lat": 11.202490883504844, "lon": 153.39823727215867, "alt_km": 294.9704998747111, "timestamp": "2025-12-19T10:49:59.925883+00:00", "meta": {"OBJECT_NAME": "STARLINK-35754", "OBJECT_ID": "2025-294AA", "EPOCH": "2025-12-18T22:00:00.999936", "MEAN_MOTION": 15.93865097, "ECCENTRICITY": 0.00018676, "INCLINATION": 43, "RA_OF_ASC_NODE": 144.4587, "ARG_OF_PERICENTER": 263.9703, "MEAN_ANOMALY": 282.3753, "EPHEMERIS_TYPE": 0, "CLASSIFICATION_TYPE": "U", "NORAD_CAT_ID": 67054, "ELEMENT_SET_NO": 999, "REV_AT_EPOCH": 130, "BSTAR": -0.0043809128, "MEAN_MOTION_DOT": -0.01655061, "MEAN_MOTION_DDOT": 0.00077448953}, "tle": {"line1": "1 67054U 25294AA  25352.91667824 -.01655061  77449-3 -43809-2 0  9990", "line2": "2 67054  43.0000 144.4587 0001867 263.9703 282.3753 15.93865097  1303"}}, "geometry": {"type": "Point", "coordinates": [153.39823727215867, 11.202490883504844]}}, {"type": "Feature", "properties": {"norad_id": 67055, "name": "STARLINK-35790", "group": "last-30-days", "lat": 12.640225473964712, "lon": 155.04698513823348, "alt_km": 294.67079288278273, "timestamp": "2025-12-19T10:49:59.925906+00:00", "meta": {"OBJECT_NAME": "STARLINK-35790", "OBJECT_ID": "2025-294AB", "EPOCH": "2025-12-18T22:00:00.999936", "MEAN_MOTION": 15.93943573, "ECCENTRICITY": 0.0001874, "INCLINATION": 42.9999, "RA_OF_ASC_NODE": 144.4528, "ARG_OF_PERICENTER": 264.0724, "MEAN_ANOMALY": 284.315, "EPHEMERIS_TYPE": 0, "CLASSIFICATION_TYPE": "U", "NORAD_CAT_ID": 67055, "ELEMENT_SET_NO": 999, "REV_AT_EPOCH": 130, "BSTAR": -0.00444099, "MEAN_MOTION_DOT": -0.01684396, "MEAN_MOTION_DDOT": 0.00080064062}, "tle": {"line1": "1 67055U 25294AB  25352.91667824 -.01684396  80064-3 -44410-2 0  9990", "line2": "2 67055  42.9999 144.4528 0001874 264.0724 284.3150 15.93943573  1306"}}, "geometry": {"type": "Point", "coordinates": [155.04698513823348, 12.640225473964712]}}, {"type": "Feature", "properties": {"norad_id": 67056, "name": "STARLINK-36143", "group": "last-30-days", "lat": 16.165907718845407, "lon": 159.2329324492763, "alt_km": 293.8068651624926, "timestamp": "2025-12-19T10:49:59.925920+00:00", "meta": {"OBJECT_NAME": "STARLINK-36143", "OBJECT_ID": "2025-294AC", "EPOCH": "2025-12-18T22:00:00.999936", "MEAN_MOTION": 15.9413583, "ECCENTRICITY": 0.00017966, "INCLINATION": 43.0001, "RA_OF_ASC_NODE": 144.4409, "ARG_OF_PERICENTER": 264.4857, "MEAN_ANOMALY": 288.9521, "EPHEMERIS_TYPE": 0, "CLASSIFICATION_TYPE": "U", "NORAD_CAT_ID": 67056, "ELEMENT_SET_NO": 999, "REV_AT_EPOCH": 130, "BSTAR": -0.0045077799, "MEAN_MOTION_DOT": -0.01726752, "MEAN_MOTION_DDOT": 0.00083986059}, "tle": {"line1": "1 67056U 25294AC  25352.91667824 -.01726752  83986-3 -45078-2 0  9991", "line2": "2 67056  43.0001 144.4409 0001796 264.4857 288.9521 15.94135830  1307"}}, "geometry": {"type": "Point", "coordinates": [159.2329324492763, 16.165907718845407]}}, {"type": "Feature", "properties": {"norad_id": 67057, "name": "STARLINK-36141", "group": "last-30-days", "lat": 14.932978352441701, "lon": 157.7436290232215, "alt_km": 293.8351793334796, "timestamp": "2025-12-19T10:49:59.925931+00:00", "meta": {"OBJECT_NAME": "STARLINK-36141", "OBJECT_ID": "2025-294AD", "EPOCH": "2025-12-18T22:00:00.999936", "MEAN_MOTION": 15.94070152, "ECCENTRICITY": 0.00014335, "INCLINATION": 42.9999, "RA_OF_ASC_NODE": 144.4451, "ARG_OF_PERICENTER": 269.6454, "MEAN_ANOMALY": 282.0051, "EPHEMERIS_TYPE": 0, "CLASSIFICATION_TYPE": "U", "NORAD_CAT_ID": 67057, "ELEMENT_SET_NO": 999, "REV_AT_EPOCH": 130, "BSTAR": -0.0044615407, "MEAN_MOTION_DOT": -0.01703267, "MEAN_MOTION_DDOT": 0.00081832429}, "tle": {"line1": "1 67057U 25294AD  25352.91667824 -.01703267  81832-3 -44615-2 0  9992", "line2": "2 67057  42.9999 144.4451 0001433 269.6454 282.0051 15.94070152  1305"}}, "geometry": {"type": "Point", "coordinates": [157.7436290232215, 14.932978352441701]}}]}